IRIDIUM 68 [+]          
1 25291U 98021G   18031.32503644  .00000162  00000-0  50947-4 0  9997
2 25291  86.3989 128.7122 0002094  98.5888 261.5545 14.34222115 37708
IRIDIUM 69 [-]          
1 25319U 98026A   18031.38005778  .00000074  00000-0  17767-4 0  9999
2 25319  86.4032 149.7761 0001158 164.9675 195.1558 14.38713159 35849
IRIDIUM 71 [-]          
1 25320U 98026B   18031.37423613  .00000096  00000-0  24462-4 0  9996
2 25320  86.4013 145.5600 0001397  27.5651 332.5621 14.39131325 36286
IRIDIUM 70 [+]          
1 25342U 98032A   18031.48984196  .00000173  00000-0  54642-4 0  9996
2 25342  86.3993 128.8962 0002119  93.3473 266.7966 14.34218879 31827
IRIDIUM 72 [+]          
1 25343U 98032B   18031.33762018  .00000176  00000-0  55834-4 0  9995
2 25343  86.3987 128.5566 0002120  95.9821 264.1616 14.34219078 31809
IRIDIUM 73 [-]          
1 25344U 98032C   18031.29835189  .00000119  00000-0  26010-4 0  9992
2 25344  86.4428 106.5890 0002541  81.3611 278.7881 14.49092313 40587
IRIDIUM 75 [+]          
1 25346U 98032E   18031.34395730  .00000165  00000-0  51697-4 0  9993
2 25346  86.3989 128.8144 0002143  96.8278 263.3162 14.34219172 32375
IRIDIUM 3 [P]           
1 25431U 98048A   18031.54806739  .01681755 -11252-5  63592-3 0  9997
2 25431  86.3727 159.4214 0195325 318.9148  39.7558 15.93300846 18460
IRIDIUM 76 [+]          
1 25432U 98048B   18031.41726109  .00000114  00000-0  33617-4 0  9998
2 25432  86.3999 160.1001 0002235  93.7238 266.4213 14.34216417 18304
IRIDIUM 82 [-]          
1 25467U 98051A   18031.28929562  .00000611  00000-0  44291-4 0  9995
2 25467  86.4002 276.4327 0180053 298.4669  59.8520 14.89713281 20799
IRIDIUM 81 [+]          
1 25468U 98051B   18031.24814566  .00000167  00000-0  47924-4 0  9991
2 25468  86.4235 286.4855 0002307  87.2856 272.8607 14.38610861 15636
IRIDIUM 80 [+]          
1 25469U 98051C   18031.26285868  .00000158  00000-0  49534-4 0  9990
2 25469  86.3964 286.7371 0001418  93.6401  21.3451 14.34220904 15523
IRIDIUM 2 [-]           
1 25527U 98066A   18031.31483039  .00000793  00000-0  38014-4 0  9993
2 25527  85.5286 257.5174 0008249 346.7696  13.3326 15.17158970 52450
IRIDIUM 86 [+]          
1 25528U 98066B   18031.11661819  .00000033  00000-0  47219-5 0  9991
2 25528  86.3934 254.4715 0001464  60.7986 299.3356 14.34220445 12038
IRIDIUM 84 [+]          
1 25530U 98066D   18031.56694623  .00000039  00000-0  68990-5 0  9997
2 25530  86.3935 254.4518 0002053  87.2802 272.8629 14.34220681  9733
IRIDIUM 83 [+]          
1 25531U 98066E   18031.24981803  .00000016  00000-0 -12589-5 0  9991
2 25531  86.3941 254.7191 0001970  85.3534 274.7886 14.34219151  7047
IRIDIUM 20 [+]          
1 25577U 98074A   18031.44893328  .00000114  00000-0  33722-4 0  9995
2 25577  86.3999 160.0056 0002043  95.7575 264.3854 14.34216938  1157
IRIDIUM 11 [+]          
1 25578U 98074B   18030.78569493  .00000104  00000-0  30212-4 0  9995
2 25578  86.3998 160.4821 0001950  96.8872  15.4971 14.34216419 10024
IRIDIUM 14 [+]          
1 25777U 99032A   18031.36299033  .00000171  00000-0  53922-4 0  9993
2 25777  86.3988 128.6343 0002084  94.2263 265.9171 14.34218778987380
IRIDIUM 21 [+]          
1 25778U 99032B   18031.33127967  .00000173  00000-0  54824-4 0  9991
2 25778  86.3988 128.6632 0002290  97.9825 262.1631 14.34218903980816
IRIDIUM 91 [+]          
1 27372U 02005A   18031.50933011  .00000022  00000-0  96668-6 0  9998
2 27372  86.3984 191.7429 0002213  82.6178 277.5269 14.34217650844359
IRIDIUM 90 [B]          
1 27373U 02005B   18031.54908648  .00000043  00000-0  67931-5 0  9994
2 27373  86.4448 254.5873 0002069  83.4030 276.7406 14.42949968844281
IRIDIUM 94 [+]          
1 27374U 02005C   18031.42271135  .00000109  00000-0  31967-4 0  9998
2 27374  86.3999 160.3515 0002438  83.8761 337.4487 14.34219741848664
IRIDIUM 95 [+]          
1 27375U 02005D   18031.40793574 -.00000063  00000-0 -29489-4 0  9990
2 27375  86.3980 191.7990 0002777  84.8168 275.3345 14.34212298843622
IRIDIUM 96 [P]          
1 27376U 02005E   18031.56703580  .00020045 -10945-5  22579-3 0  9993
2 27376  86.3801 221.2636 0320393   8.8325 351.8365 15.18887903849182
IRIDIUM 97 [+]          
1 27450U 02031A   18031.44934221 -.00000067  00000-0 -30881-4 0  9995
2 27450  86.3954 223.4762 0001955  82.0128 278.1290 14.34214762822940
IRIDIUM 98 [+]          
1 27451U 02031B   18031.38647941  .00000161  00000-0  50498-4 0  9998
2 27451  86.3957 286.7667 0001708  74.4997 285.6387 14.34221021824011
